
# Worst residual: 15.98 km
# MJD 58752.000000 (2019 Sep 26  0:00)
2019-021B = NORAD 44187 = Falcon 9 rocket
1 44187U 19021B   19269.49919926  .00000000  00000-0  00000-0 0  6103
2 44187 022.5541 354.9343 8699518 211.0034 034.8451 00.74713354    02

# Worst residual: 15.32 km
# MJD 58753.000000 (2019 Sep 27  0:00)
2019-021B = NORAD 44187 = Falcon 9 rocket
1 44187U 19021B   19270.49919926  .00000000  00000-0  00000-0 0  6105
2 44187 022.5490 354.8290 8699904 211.1959 303.6386 00.74690426    09

# Worst residual: 10.13 km
# MJD 58754.000000 (2019 Sep 28  0:00)
2019-021B = NORAD 44187 = Falcon 9 rocket
1 44187U 19021B   19271.49919926  .00000000  00000-0  00000-0 0  6106
2 44187 022.5441 354.7068 8701239 211.4107 212.4639 00.74691496    06

# Worst residual: 11.95 km
# MJD 58755.000000 (2019 Sep 29  0:00)
2019-021B = NORAD 44187 = Falcon 9 rocket
1 44187U 19021B   19272.49919926  .00000000  00000-0  00000-0 0  6107
2 44187 022.5407 354.5908 8699562 211.6196 121.2937 00.74682925    09

# Worst residual: 15.42 km
# MJD 58756.000000 (2019 Sep 30  0:00)
2019-021B = NORAD 44187 = Falcon 9 rocket
1 44187U 19021B   19273.49919926  .00000000  00000-0  00000-0 0  6108
2 44187 022.5383 354.4749 8699801 211.8212 030.1278 00.74704425    07

# Worst residual: 16.22 km
# MJD 58757.000000 (2019 Oct  1  0:00)
2019-021B = NORAD 44187 = Falcon 9 rocket
1 44187U 19021B   19274.49919926  .00000000  00000-0  00000-0 0  6109
2 44187 022.5385 354.3759 8699681 212.0042 298.9547 00.74686956    00

# Worst residual: 9.15 km
# MJD 58758.000000 (2019 Oct  2  0:00)
2019-021B = NORAD 44187 = Falcon 9 rocket
1 44187U 19021B   19275.49919926  .00000000  00000-0  00000-0 0  6100
2 44187 022.5294 354.2470 8701396 212.2244 207.7925 00.74694485    05

# Worst residual: 11.70 km
# MJD 58759.000000 (2019 Oct  3  0:00)
2019-021B = NORAD 44187 = Falcon 9 rocket
1 44187U 19021B   19276.49919926  .00000000  00000-0  00000-0 0  6101
2 44187 022.5289 354.1343 8699759 212.4295 116.6276 00.74688185    01

# Worst residual: 13.88 km
# MJD 58760.000000 (2019 Oct  4  0:00)
2019-021B = NORAD 44187 = Falcon 9 rocket
1 44187U 19021B   19277.49919926  .00000000  00000-0  00000-0 0  6102
2 44187 022.5233 354.0165 8699994 212.6308 025.4689 00.74717071    01

# Worst residual: 12.94 km
# MJD 58761.000000 (2019 Oct  5  0:00)
2019-021B = NORAD 44187 = Falcon 9 rocket
1 44187U 19021B   19278.49919926  .00000000  00000-0  00000-0 0  6103
2 44187 022.5243 353.9185 8699711 212.8154 294.2831 00.74690204    03

# Worst residual: 8.97 km
# MJD 58762.000000 (2019 Oct  6  0:00)
2019-021B = NORAD 44187 = Falcon 9 rocket
1 44187U 19021B   19279.49919926  .00000000  00000-0  00000-0 0  6104
2 44187 022.5111 353.7836 8701564 213.0421 203.1274 00.74700385    00

# Worst residual: 12.47 km
# MJD 58763.000000 (2019 Oct  7  0:00)
2019-021B = NORAD 44187 = Falcon 9 rocket
1 44187U 19021B   19280.49919926  .00000000  00000-0  00000-0 0  6106
2 44187 022.5115 353.6722 8699454 213.2414 111.9715 00.74693098    03

# Worst residual: 16.06 km
# MJD 58764.000000 (2019 Oct  8  0:00)
2019-021B = NORAD 44187 = Falcon 9 rocket
1 44187U 19021B   19281.49919926  .00000000  00000-0  00000-0 0  6107
2 44187 022.5069 353.5556 8698885 213.4386 020.8268 00.74718194    08

# Worst residual: 13.93 km
# MJD 58765.000000 (2019 Oct  9  0:00)
2019-021B = NORAD 44187 = Falcon 9 rocket
1 44187U 19021B   19282.49919926  .00000000  00000-0  00000-0 0  6108
2 44187 022.5078 353.4613 8699025 213.6160 289.6629 00.74692801    02

# Worst residual: 7.50 km
# MJD 58766.000000 (2019 Oct 10  0:00)
2019-021B = NORAD 44187 = Falcon 9 rocket
1 44187U 19021B   19283.49919926  .00000000  00000-0  00000-0 0  6109
2 44187 022.4919 353.3194 8701260 213.8437 198.5127 00.74700186    09

# Worst residual: 11.24 km
# MJD 58767.000000 (2019 Oct 11  0:00)
2019-021B = NORAD 44187 = Falcon 9 rocket
1 44187U 19021B   19284.49919926  .00000000  00000-0  00000-0 0  6100
2 44187 022.4893 353.2045 8699738 214.0482 107.3642 00.74685580    03

# Worst residual: 19.71 km
# MJD 58768.000000 (2019 Oct 12  0:00)
2019-021B = NORAD 44187 = Falcon 9 rocket
1 44187U 19021B   19285.49919926  .00000000  00000-0  00000-0 0  6101
2 44187 022.4837 353.0819 8700774 214.2562 016.2115 00.74708816    03

# Worst residual: 13.23 km
# MJD 58769.000000 (2019 Oct 13  0:00)
2019-021B = NORAD 44187 = Falcon 9 rocket
1 44187U 19021B   19286.49919926  .00000000  00000-0  00000-0 0  6102
2 44187 022.4743 352.9674 8701401 214.4588 285.0154 00.74687621    03

# Worst residual: 6.02 km
# MJD 58770.000000 (2019 Oct 14  0:00)
2019-021B = NORAD 44187 = Falcon 9 rocket
1 44187U 19021B   19287.49919926  .00000000  00000-0  00000-0 0  6103
2 44187 022.4593 352.8283 8702757 214.6960 193.8396 00.74686838    05

# Worst residual: 14.83 km
# MJD 58771.000000 (2019 Oct 15  0:00)
2019-021B = NORAD 44187 = Falcon 9 rocket
1 44187U 19021B   19288.49919926  .00000000  00000-0  00000-0 0  6104
2 44187 022.4568 352.7046 8701308 214.9181 102.6680 00.74688803    00

# Worst residual: 17.55 km
# MJD 58772.000000 (2019 Oct 16  0:00)
2019-021B = NORAD 44187 = Falcon 9 rocket
1 44187U 19021B   19289.49919926  .00000000  00000-0  00000-0 0  6105
2 44187 022.4471 352.5780 8700387 215.1333 011.4746 00.74710267    04

# Worst residual: 13.36 km
# MJD 58773.000000 (2019 Oct 17  0:00)
2019-021B = NORAD 44187 = Falcon 9 rocket
1 44187U 19021B   19290.49919926  .00000000  00000-0  00000-0 0  6107
2 44187 022.4442 352.4724 8699133 215.3266 280.3023 00.74683115    08

# Worst residual: 6.18 km
# MJD 58774.000000 (2019 Oct 18  0:00)
2019-021B = NORAD 44187 = Falcon 9 rocket
1 44187U 19021B   19291.49919926  .00000000  00000-0  00000-0 0  6108
2 44187 022.4309 352.3341 8700427 215.5533 189.1556 00.74699124    06

# Worst residual: 12.34 km
# MJD 58775.000000 (2019 Oct 19  0:00)
2019-021B = NORAD 44187 = Falcon 9 rocket
1 44187U 19021B   19292.49919926  .00000000  00000-0  00000-0 0  6109
2 44187 022.4317 352.2228 8697922 215.7526 097.9951 00.74692158    02

# Worst residual: 12.94 km
# MJD 58776.000000 (2019 Oct 20  0:00)
2019-021B = NORAD 44187 = Falcon 9 rocket
1 44187U 19021B   19293.49919926  .00000000  00000-0  00000-0 0  6100
2 44187 022.4256 352.1027 8697649 215.9543 006.8333 00.74719196    02

# Worst residual: 15.15 km
# MJD 58777.000000 (2019 Oct 21  0:00)
2019-021B = NORAD 44187 = Falcon 9 rocket
1 44187U 19021B   19294.49919926  .00000000  00000-0  00000-0 0  6101
2 44187 022.4233 351.9971 8698294 216.1437 275.6624 00.74691939    07

# Worst residual: 7.79 km
# MJD 58778.000000 (2019 Oct 22  0:00)
2019-021B = NORAD 44187 = Falcon 9 rocket
1 44187U 19021B   19295.49919926  .00000000  00000-0  00000-0 0  6102
2 44187 022.4078 351.8586 8700406 216.3696 184.4941 00.74697135    06

# Worst residual: 13.09 km
# MJD 58779.000000 (2019 Oct 23  0:00)
2019-021B = NORAD 44187 = Falcon 9 rocket
1 44187U 19021B   19296.49919926  .00000000  00000-0  00000-0 0  6103
2 44187 022.4128 351.7524 8698528 216.5705 093.3274 00.74690196    04
